ONEWEB-0307             
1 49189U 21083D   24021.28891760  .00001225  00000+0  33185-2 0  9996
2 49189  87.9017 134.9923 0001691 105.0386 255.0930 13.13481216115681
ONEWEB-0320             
1 49190U 21083E   24021.41064091 -.00000274  00000+0 -72838-3 0  9996
2 49190  87.9242 150.1313 0001625 100.9452 259.1863 13.18686286115578
ONEWEB-0321             
1 49191U 21083F   24021.25547725 -.00000151  00000+0 -40447-3 0  9994
2 49191  87.9176  89.1952 0002123 100.8420 259.2952 13.20770687120942
ONEWEB-0322             
1 49192U 21083G   24021.36034639  .00000151  00000+0  37728-3 0  9998
2 49192  87.9018 134.9659 0002117  98.4959 261.6410 13.13470716116979
ONEWEB-0324             
1 49193U 21083H   24020.86527286  .00000015  00000+0  40834-5 0  9991
2 49193  87.9242 150.2225 0001440  90.1336 269.9961 13.18683989114248
ONEWEB-0326             
1 49195U 21083K   24021.41539803 -.00000003  00000+0 -41181-4 0  9997
2 49195  87.9241 150.1278 0000953 112.0670 248.0564 13.18685854115598
